<?xml version="1.0" encoding="UTF-8"?>
<ndm xmlns:xsi="http://www.w3.org/2001/XMLSchema-instance" xsi:noNamespaceSchemaLocation="https://sanaregistry.org/r/ndmxml_unqualified/ndmxml-2.0.0-master-2.0.xsd">
<omm id="CCSDS_OMM_VERS" version="2.0">
<header><CREATION_DATE/><ORIGINATOR/></header><body><segment><metadata><OBJECT_NAME>EUTELSAT 115 WEST B</OBJECT_NAME><OBJECT_ID>2015-010B</OBJECT_ID><CENTER_NAME>EARTH</CENTER_NAME><REF_FRAME>TEME</REF_FRAME><TIME_SYSTEM>UTC</TIME_SYSTEM><MEAN_ELEMENT_THEORY>SGP4</MEAN_ELEMENT_THEORY></metadata><data><meanElements><EPOCH>2025-07-24T16:08:26.659392</EPOCH><MEAN_MOTION>1.00273719</MEAN_MOTION><ECCENTRICITY>.0000412</ECCENTRICITY><INCLINATION>0.0082</INCLINATION><RA_OF_ASC_NODE>203.8719</RA_OF_ASC_NODE><ARG_OF_PERICENTER>247.8483</ARG_OF_PERICENTER><MEAN_ANOMALY>338.1175</MEAN_ANOMALY></meanElements><tleParameters><EPHEMERIS_TYPE>0</EPHEMERIS_TYPE><CLASSIFICATION_TYPE>U</CLASSIFICATION_TYPE><NORAD_CAT_ID>40425</NORAD_CAT_ID><ELEMENT_SET_NO>999</ELEMENT_SET_NO><REV_AT_EPOCH>3814</REV_AT_EPOCH><BSTAR>0</BSTAR><MEAN_MOTION_DOT>-.37E-6</MEAN_MOTION_DOT><MEAN_MOTION_DDOT>0</MEAN_MOTION_DDOT></tleParameters></data></segment></body></omm>
<omm id="CCSDS_OMM_VERS" version="2.0">
<header><CREATION_DATE/><ORIGINATOR/></header><body><segment><metadata><OBJECT_NAME>EUTELSAT 8 WEST B</OBJECT_NAME><OBJECT_ID>2015-039B</OBJECT_ID><CENTER_NAME>EARTH</CENTER_NAME><REF_FRAME>TEME</REF_FRAME><TIME_SYSTEM>UTC</TIME_SYSTEM><MEAN_ELEMENT_THEORY>SGP4</MEAN_ELEMENT_THEORY></metadata><data><meanElements><EPOCH>2025-07-25T08:47:05.523360</EPOCH><MEAN_MOTION>1.00270824</MEAN_MOTION><ECCENTRICITY>.0003739</ECCENTRICITY><INCLINATION>0.0641</INCLINATION><RA_OF_ASC_NODE>354.2298</RA_OF_ASC_NODE><ARG_OF_PERICENTER>128.0938</ARG_OF_PERICENTER><MEAN_ANOMALY>304.7773</MEAN_ANOMALY></meanElements><tleParameters><EPHEMERIS_TYPE>0</EPHEMERIS_TYPE><CLASSIFICATION_TYPE>U</CLASSIFICATION_TYPE><NORAD_CAT_ID>40875</NORAD_CAT_ID><ELEMENT_SET_NO>999</ELEMENT_SET_NO><REV_AT_EPOCH>3638</REV_AT_EPOCH><BSTAR>0</BSTAR><MEAN_MOTION_DOT>-.78E-6</MEAN_MOTION_DOT><MEAN_MOTION_DDOT>0</MEAN_MOTION_DDOT></tleParameters></data></segment></body></omm>
<omm id="CCSDS_OMM_VERS" version="2.0">
<header><CREATION_DATE/><ORIGINATOR/></header><body><segment><metadata><OBJECT_NAME>EUTELSAT 9B</OBJECT_NAME><OBJECT_ID>2016-005A</OBJECT_ID><CENTER_NAME>EARTH</CENTER_NAME><REF_FRAME>TEME</REF_FRAME><TIME_SYSTEM>UTC</TIME_SYSTEM><MEAN_ELEMENT_THEORY>SGP4</MEAN_ELEMENT_THEORY></metadata><data><meanElements><EPOCH>2025-07-25T08:09:09.755136</EPOCH><MEAN_MOTION>1.00269732</MEAN_MOTION><ECCENTRICITY>.0001049</ECCENTRICITY><INCLINATION>0.0215</INCLINATION><RA_OF_ASC_NODE>51.7965</RA_OF_ASC_NODE><ARG_OF_PERICENTER>80.8408</ARG_OF_PERICENTER><MEAN_ANOMALY>301.9263</MEAN_ANOMALY></meanElements><tleParameters><EPHEMERIS_TYPE>0</EPHEMERIS_TYPE><CLASSIFICATION_TYPE>U</CLASSIFICATION_TYPE><NORAD_CAT_ID>41310</NORAD_CAT_ID><ELEMENT_SET_NO>999</ELEMENT_SET_NO><REV_AT_EPOCH>3483</REV_AT_EPOCH><BSTAR>0</BSTAR><MEAN_MOTION_DOT>.49E-6</MEAN_MOTION_DOT><MEAN_MOTION_DDOT>0</MEAN_MOTION_DDOT></tleParameters></data></segment></body></omm>
<omm id="CCSDS_OMM_VERS" version="2.0">
<header><CREATION_DATE/><ORIGINATOR/></header><body><segment><metadata><OBJECT_NAME>EUTELSAT 65 WEST A</OBJECT_NAME><OBJECT_ID>2016-014A</OBJECT_ID><CENTER_NAME>EARTH</CENTER_NAME><REF_FRAME>TEME</REF_FRAME><TIME_SYSTEM>UTC</TIME_SYSTEM><MEAN_ELEMENT_THEORY>SGP4</MEAN_ELEMENT_THEORY></metadata><data><meanElements><EPOCH>2025-07-25T11:15:04.783968</EPOCH><MEAN_MOTION>1.00271172</MEAN_MOTION><ECCENTRICITY>.0002217</ECCENTRICITY><INCLINATION>0.0541</INCLINATION><RA_OF_ASC_NODE>339.1171</RA_OF_ASC_NODE><ARG_OF_PERICENTER>146.4026</ARG_OF_PERICENTER><MEAN_ANOMALY>281.4598</MEAN_ANOMALY></meanElements><tleParameters><EPHEMERIS_TYPE>0</EPHEMERIS_TYPE><CLASSIFICATION_TYPE>U</CLASSIFICATION_TYPE><NORAD_CAT_ID>41382</NORAD_CAT_ID><ELEMENT_SET_NO>999</ELEMENT_SET_NO><REV_AT_EPOCH>3425</REV_AT_EPOCH><BSTAR>0</BSTAR><MEAN_MOTION_DOT>-.288E-5</MEAN_MOTION_DOT><MEAN_MOTION_DDOT>0</MEAN_MOTION_DDOT></tleParameters></data></segment></body></omm>
<omm id="CCSDS_OMM_VERS" version="2.0">
<header><CREATION_DATE/><ORIGINATOR/></header><body><segment><metadata><OBJECT_NAME>EUTELSAT 117 WEST B</OBJECT_NAME><OBJECT_ID>2016-038B</OBJECT_ID><CENTER_NAME>EARTH</CENTER_NAME><REF_FRAME>TEME</REF_FRAME><TIME_SYSTEM>UTC</TIME_SYSTEM><MEAN_ELEMENT_THEORY>SGP4</MEAN_ELEMENT_THEORY></metadata><data><meanElements><EPOCH>2025-07-25T08:09:02.299680</EPOCH><MEAN_MOTION>1.00273532</MEAN_MOTION><ECCENTRICITY>.0000369</ECCENTRICITY><INCLINATION>0.0088</INCLINATION><RA_OF_ASC_NODE>185.0916</RA_OF_ASC_NODE><ARG_OF_PERICENTER>266.7575</ARG_OF_PERICENTER><MEAN_ANOMALY>216.7040</MEAN_ANOMALY></meanElements><tleParameters><EPHEMERIS_TYPE>0</EPHEMERIS_TYPE><CLASSIFICATION_TYPE>U</CLASSIFICATION_TYPE><NORAD_CAT_ID>41589</NORAD_CAT_ID><ELEMENT_SET_NO>999</ELEMENT_SET_NO><REV_AT_EPOCH>3338</REV_AT_EPOCH><BSTAR>0</BSTAR><MEAN_MOTION_DOT>-.24E-6</MEAN_MOTION_DOT><MEAN_MOTION_DDOT>0</MEAN_MOTION_DDOT></tleParameters></data></segment></body></omm>
<omm id="CCSDS_OMM_VERS" version="2.0">
<header><CREATION_DATE/><ORIGINATOR/></header><body><segment><metadata><OBJECT_NAME>EUTELSAT 172B</OBJECT_NAME><OBJECT_ID>2017-029B</OBJECT_ID><CENTER_NAME>EARTH</CENTER_NAME><REF_FRAME>TEME</REF_FRAME><TIME_SYSTEM>UTC</TIME_SYSTEM><MEAN_ELEMENT_THEORY>SGP4</MEAN_ELEMENT_THEORY></metadata><data><meanElements><EPOCH>2025-07-25T09:49:38.569152</EPOCH><MEAN_MOTION>1.00271153</MEAN_MOTION><ECCENTRICITY>.0000092</ECCENTRICITY><INCLINATION>0.0164</INCLINATION><RA_OF_ASC_NODE>143.2767</RA_OF_ASC_NODE><ARG_OF_PERICENTER>128.4512</ARG_OF_PERICENTER><MEAN_ANOMALY>351.0255</MEAN_ANOMALY></meanElements><tleParameters><EPHEMERIS_TYPE>0</EPHEMERIS_TYPE><CLASSIFICATION_TYPE>U</CLASSIFICATION_TYPE><NORAD_CAT_ID>42741</NORAD_CAT_ID><ELEMENT_SET_NO>999</ELEMENT_SET_NO><REV_AT_EPOCH>3043</REV_AT_EPOCH><BSTAR>0</BSTAR><MEAN_MOTION_DOT>-.18E-6</MEAN_MOTION_DOT><MEAN_MOTION_DDOT>0</MEAN_MOTION_DDOT></tleParameters></data></segment></body></omm>
<omm id="CCSDS_OMM_VERS" version="2.0">
<header><CREATION_DATE/><ORIGINATOR/></header><body><segment><metadata><OBJECT_NAME>EUTELSAT 7C</OBJECT_NAME><OBJECT_ID>2019-034B</OBJECT_ID><CENTER_NAME>EARTH</CENTER_NAME><REF_FRAME>TEME</REF_FRAME><TIME_SYSTEM>UTC</TIME_SYSTEM><MEAN_ELEMENT_THEORY>SGP4</MEAN_ELEMENT_THEORY></metadata><data><meanElements><EPOCH>2025-07-25T08:08:39.802848</EPOCH><MEAN_MOTION>1.00270354</MEAN_MOTION><ECCENTRICITY>.0003102</ECCENTRICITY><INCLINATION>0.0734</INCLINATION><RA_OF_ASC_NODE>191.8136</RA_OF_ASC_NODE><ARG_OF_PERICENTER>278.2238</ARG_OF_PERICENTER><MEAN_ANOMALY>322.3924</MEAN_ANOMALY></meanElements><tleParameters><EPHEMERIS_TYPE>0</EPHEMERIS_TYPE><CLASSIFICATION_TYPE>U</CLASSIFICATION_TYPE><NORAD_CAT_ID>44334</NORAD_CAT_ID><ELEMENT_SET_NO>999</ELEMENT_SET_NO><REV_AT_EPOCH>355</REV_AT_EPOCH><BSTAR>0</BSTAR><MEAN_MOTION_DOT>.36E-6</MEAN_MOTION_DOT><MEAN_MOTION_DDOT>0</MEAN_MOTION_DDOT></tleParameters></data></segment></body></omm>
<omm id="CCSDS_OMM_VERS" version="2.0">
<header><CREATION_DATE/><ORIGINATOR/></header><body><segment><metadata><OBJECT_NAME>EUTELSAT 5 WEST B</OBJECT_NAME><OBJECT_ID>2019-067A</OBJECT_ID><CENTER_NAME>EARTH</CENTER_NAME><REF_FRAME>TEME</REF_FRAME><TIME_SYSTEM>UTC</TIME_SYSTEM><MEAN_ELEMENT_THEORY>SGP4</MEAN_ELEMENT_THEORY></metadata><data><meanElements><EPOCH>2025-07-25T08:05:10.137696</EPOCH><MEAN_MOTION>1.00272825</MEAN_MOTION><ECCENTRICITY>.0002948</ECCENTRICITY><INCLINATION>0.0784</INCLINATION><RA_OF_ASC_NODE>323.4070</RA_OF_ASC_NODE><ARG_OF_PERICENTER>162.9171</ARG_OF_PERICENTER><MEAN_ANOMALY>293.2534</MEAN_ANOMALY></meanElements><tleParameters><EPHEMERIS_TYPE>0</EPHEMERIS_TYPE><CLASSIFICATION_TYPE>U</CLASSIFICATION_TYPE><NORAD_CAT_ID>44624</NORAD_CAT_ID><ELEMENT_SET_NO>999</ELEMENT_SET_NO><REV_AT_EPOCH>2115</REV_AT_EPOCH><BSTAR>0</BSTAR><MEAN_MOTION_DOT>-.54E-6</MEAN_MOTION_DOT><MEAN_MOTION_DDOT>0</MEAN_MOTION_DDOT></tleParameters></data></segment></body></omm>

</ndm>
