EUTELSAT 115 WEST B     
1 40425U 15010B   25205.67253078 -.00000037  00000+0  00000+0 0  9993
2 40425   0.0082 203.8719 0000412 247.8483 338.1175  1.00273719 38144
EUTELSAT 8 WEST B       
1 40875U 15039B   25206.36603615 -.00000078  00000+0  00000+0 0  9991
2 40875   0.0641 354.2298 0003739 128.0938 304.7773  1.00270824 36388
EUTELSAT 9B             
1 41310U 16005A   25206.33969624  .00000049  00000+0  00000+0 0  9999
2 41310   0.0215  51.7965 0001049  80.8408 301.9263  1.00269732 34836
EUTELSAT 65 WEST A      
1 41382U 16014A   25206.46880537 -.00000288  00000+0  00000+0 0  9993
2 41382   0.0541 339.1171 0002217 146.4026 281.4598  1.00271172 34252
EUTELSAT 117 WEST B     
1 41589U 16038B   25206.33960995 -.00000024  00000+0  00000+0 0  9999
2 41589   0.0088 185.0916 0000369 266.7575 216.7040  1.00273532 33381
EUTELSAT 172B           
1 42741U 17029B   25206.40947418 -.00000018  00000+0  00000+0 0  9997
2 42741   0.0164 143.2767 0000092 128.4512 351.0255  1.00271153 30436
EUTELSAT 7C             
1 44334U 19034B   25206.33934957  .00000036  00000+0  00000+0 0  9990
2 44334   0.0734 191.8136 0003102 278.2238 322.3924  1.00270354  3551
EUTELSAT 5 WEST B       
1 44624U 19067A   25206.33692289 -.00000054  00000+0  00000+0 0  9998
2 44624   0.0784 323.4070 0002948 162.9171 293.2534  1.00272825 21154
